0 RADUGA 1M-2
1 36358U 10002A   13280.87963037 -.00000193  00000-0  10000-3 0   545
2 36358 000.0188 250.6650 0002613 350.0270 177.6759 01.00271610 13539
0 RADUGA 1M-2
1 36358U 10002A   13281.94389322 -.00000196  00000-0  10000-3 0   557
2 36358 000.0166 250.8126 0002487 349.1182 202.6229 01.00271521 13548
0 RADUGA 1M-2
1 36358U 10002A   13283.31117972  .00000000  00000-0  10000-3 0   564
2 36358 000.0082 223.1595 0003130 026.9983 325.9201 01.00266735 12182
0 RADUGA 1M-2
1 36358U 10002A   13283.84627898 -.00000202  00000-0  10000-3 0   560
2 36358 000.0154 252.5849 0002606 347.5829 169.1174 01.00271227 13560
0 RADUGA 1M-2
1 36358U 10002A   13285.70776802 -.00000207  00000-0  10000-3 0   584
2 36358 000.0164 255.0577 0002525 336.7591 129.4432 01.00271233 13588
0 RADUGA 1M-2
1 36358U 10002A   13286.78435716 -.00000209  00000-0  10000-3 0   592
2 36358 000.0155 253.1379 0002526 338.4882 158.2644 01.00271043 13595
0 RADUGA 1M-2
1 36358U 10002A   13287.91311137 -.00000209  00000-0  10000-3 0   600
2 36358 000.0124 258.0569 0002512 334.7872 204.5040 01.00270721 13608
0 RADUGA 1M-2
1 36358U 10002A   13288.43887916 -.00000209  00000-0  10000-3 0   612
2 36358 000.0164 245.3368 0002675 347.1674 034.6375 01.00270727 13605
0 RADUGA 1M-2
1 36358U 10002A   13288.84957734 -.00000208  00000-0  10000-3 0   623
2 36358 000.0130 265.8417 0002670 326.8076 182.7469 01.00270660 13611
0 RADUGA 1M-2
1 36358U 10002A   13289.79137128  .00000000  00000-0  10000-3 0   646
2 36358 000.0020 043.0918 0000407 207.1941 145.0460 01.00266459 12241
0 RADUGA 1M-2
1 36358U 10002A   13289.87233949 -.00000207  00000-0  10000-3 0   632
2 36358 000.0109 265.0769 0002645 327.7729 191.7448 01.00270498 13623
0 RADUGA 1M-2
1 36358U 10002A   13290.88192378 -.00000205  00000-0  10000-3 0   644
2 36358 000.0206 253.0564 0003322 341.2872 194.7049 01.00271819 13633
0 RADUGA 1M-2
1 36358U 10002A   13291.99833206 -.00000203  00000-0  10000-3 0   658
2 36358 000.0198 253.2749 0003297 341.4655 237.3172 01.00271848 13646
0 RADUGA 1M-2
1 36358U 10002A   13293.75424711 -.00000199  00000-0  10000-3 0   666
2 36358 000.0167 254.5671 0003292 341.0979 150.2544 01.00271742 13661
0 RADUGA 1M-2
1 36358U 10002A   13294.82749731 -.00000198  00000-0  10000-3 0   677
2 36358 000.0146 253.7276 0003280 342.0164 177.6023 01.00271552 13679
